[{"OBJECT_NAME":"SDA_1671","OBJECT_ID":"2025-230H","EPOCH":"2026-03-09T17:44:20.295456","MEAN_MOTION":13.85388686,"ECCENTRICITY":0.00046746,"INCLINATION":81.3008,"RA_OF_ASC_NODE":303.8297,"ARG_OF_PERICENTER":111.686,"MEAN_ANOMALY":248.4795,"EPHEMERIS_TYPE":0,"CLASSIFICATION_TYPE":"U","NORAD_CAT_ID":65981,"ELEMENT_SET_NO":999,"REV_AT_EPOCH":2005,"BSTAR":0.00023629654,"MEAN_MOTION_DOT":2.81e-6,"MEAN_MOTION_DDOT":0},{"OBJECT_NAME":"THOR ABLESTAR DEB","OBJECT_ID":"1961-015AE","EPOCH":"2026-03-09T21:54:11.647584","MEAN_MOTION":13.91625509,"ECCENTRICITY":0.00358724,"INCLINATION":66.4979,"RA_OF_ASC_NODE":273.7476,"ARG_OF_PERICENTER":56.4855,"MEAN_ANOMALY":303.9641,"EPHEMERIS_TYPE":0,"CLASSIFICATION_TYPE":"U","NORAD_CAT_ID":144,"ELEMENT_SET_NO":999,"REV_AT_EPOCH":27083,"BSTAR":0.00024453263,"MEAN_MOTION_DOT":2.33e-6,"MEAN_MOTION_DDOT":0}]
